#dP2022 11 15  0  0  0.00000000      96 __u+U ITR00 EXT  IAC
## 2236 172800.00000000   900.00000000 59898 0.0000000000000
+  116   C06C07C08C09C10C11C12C13C14C16C19C20C21C22C23C24C25
+        C26C27C28C29C30C32C33C34C35C36C37C38C39C40C41C42C43
+        C44C45C46E01E02E03E04E05E08E09E10E11E12E13E14E15E18
+        E19E21E24E25E26E27E30E31E33E34E36G01G02G03G04G05G06
+        G07G08G09G10G11G12G13G14G15G16G17G18G19G20G21G22G23
+        G24G25G26G27G29G30G31G32J02J03J04R01R02R03R04R05R07
+        R08R09R11R12R13R14R15R17R18R19R20R21R22R24  0  0  0
++         0  0  0  0  0  0  0  0  0  0  0  0  0  0  0  0  0
++         0  0  0  0  0  0  0  0  0  0  0  0  0  0  0  0  0
++         0  0  0  0  0  0  0  0  0  0  0  0  0  0  0  0  0
++         0  0  0  0  0  0  0  0  0  0  0  0  0  0  0  0  0
++         0  0  0  0  0  0  0  0  0  0  0  0  0  0  0  0  0
++         0  0  0  0  0  0  0  0  0  0  0  0  0  0  0  0  0
++         0  0  0  0  0  0  0  0  0  0  0  0  0  0  0  0  0
%c M  cc GPS ccc cccc cccc cccc cccc ccccc ccccc ccccc ccccc
%c cc cc ccc ccc cccc cccc cccc cccc ccccc ccccc ccccc ccccc
%f  0.0000000  0.000000000  0.00000000000  0.000000000000000
%f  0.0000000  0.000000000  0.00000000000  0.000000000000000
%i    0    0    0    0      0      0      0      0         0
%i    0    0    0    0      0      0      0      0         0
/* IAC                                ULTRA-RAPID PREDICTION
/* S/V CLOCKS ARE ALIGNED TO GNSS TIME                      
/* G:C1WC2W R:C1PC2P E:C1XC5X C:C2IC6I J:C1CC2S             
/* PCV:IGS14_2233 OL/AL:FES2004  NONE     YN ORB:CoN CLK:CoN
*  2022 11 15  4  0  0.00000000
PC06   -540.957701  34673.162811  24153.322699      0.668213
PC07 -13903.291651  26600.639372 -29618.832666    212.605046
PC08 -16420.110733  38124.047578   6817.896449    511.837663
PC09   5711.302159  38521.760403  17167.287360   -806.985975
PC10  -5535.320945  27210.713013 -31509.077843     68.051098
PC11  14400.800769  -6105.640537  23181.067857   -291.787028
PC12  20643.138279  11804.192695  14633.258980    302.097278
PC13  -9114.310963  38191.107311  15100.611885    133.577355
PC14  24618.450484  -9503.456541  -8990.304293    653.980260
PC16  -4482.549943  31521.303783  27962.363143    116.688522
PC19 -17497.171150  13875.880566  16759.159101   -914.190866
PC20 -27480.677801   4678.277658   1536.952616    836.931644
PC21  21568.825589   8073.351687  15756.239305   -824.491546
PC22   3027.363109  15493.571386  23002.219581   -793.207961
PC23   2194.622855 -25582.130355  10946.370606   -877.641287
PC24  18302.455769  -6041.626181 -20202.741512   -805.721624
PC25  13632.823581 -23698.009014  -5667.610991     24.834758
PC26  12235.020511  12050.018709 -22003.216677    -36.081482
PC27 -19723.095638 -18489.191127  -6917.574628     51.534428
PC28  -9519.594721 -24303.267929   9891.100031     36.102056
PC29  -6771.313813  15904.150923 -21909.163702     40.657510
PC30 -19452.181996  -2070.735025 -19897.035637      0.955174
PC32 -21575.831101  -7956.018926 -15804.768130   -717.904958
PC33  17500.111610 -13957.921671 -16661.867733   -911.731184
PC34  19018.094374    926.665939  20400.337757     39.548925
PC35   9114.099974  23893.205577 -11211.165714     88.758271
PC36 -14487.694672  23009.124716   6273.793332   -840.318810
PC37 -11117.036004 -13687.177242  21647.030654   -842.993979
PC38 -19826.957662  37087.991118  -1030.499565     38.213782
PC39  -6602.183478  28430.433046  30515.281218     -0.865693
PC40 -20631.776936  19896.072781 -31002.420174     -8.128994
PC41  -2436.199234 -15601.136751 -22964.814979   -277.221603
PC42  27621.645193  -3908.151702   -290.821185   -665.892215
PC43   7566.323151 -15345.388722  22037.816522     25.036580
PC44  20356.438667  17909.050535   6660.320688    114.226455
PC45  -1959.715245  25421.267635 -11309.892198    -22.556923
PC46 -18356.544743   7957.603287  19434.963435    -13.081322
PE01  -8824.797260  21772.358043 -17996.234375   -566.147228
PE02   8622.261378 -21750.201528  18145.954302      2.661361
PE03  -3270.341650 -18779.830644 -22657.799816   -620.098687
PE04  21742.361057  17241.409821  10306.970291  -1158.825331
PE05  17556.461069  -9295.144596 -21950.823795   -124.546639
PE08 -21803.958853 -17137.897936 -10365.040694   -632.548303
PE09  27846.288356   5562.670912  -8344.589824   -729.575774
PE10  15233.448686  14772.152142  20628.830447   -490.910966
PE11  16346.273829   2880.191990  24504.100760   1321.999604
PE12  11839.890651  23356.865485  13810.410654   -277.650047
PE13 -16300.116038  -3907.477348 -24389.514917    430.589805
PE14   2196.264884  20962.265371 -20149.313000     56.973919
PE15 -11714.723873 -23540.974451 -13587.052153    707.355709
PE18 -18736.527646 -19954.233568   8314.602237   -741.799332
PE19    322.191574  17975.667795  23513.316824  -3993.785678
PE21 -22646.259579  18896.779875  -2445.204152   -494.712478
PE24  24378.951446  -4049.061297 -16322.748557   -948.035220
PE25  22796.533511 -18767.137914   2161.426788   -592.705549
PE26 -11043.474488  18597.321575 -20194.515596  -1846.489512
PE27 -24625.274174   4976.858713  15647.267258   -439.882938
PE30 -11362.836208 -12385.112438  24359.342689   -999.424107
PE31  12103.342952  11709.886785 -24332.666776   -508.214535
PE33    257.940031  29147.499749  -5140.657890   -455.500809
PE34   -418.572839 -29184.595005   4977.267420    -14.675130
PE36  11286.059802 -17807.765042  20783.873028   -461.022790
PG01  13131.821725 -10189.348694  20316.495861    251.640362
PG02 -11341.868771  14278.377262 -18753.046943   -637.799157
PG03  23405.574618 -11872.481050   3573.271755   -372.787182
PG04  19194.790754  -3534.390904 -18061.060977    -86.233078
PG05 -21836.650797   2264.334886 -15205.405478   -104.346583
PG06  -6427.934187 -24219.420881  -8618.515132    518.430416
PG07   6614.014827 -23085.684506 -10363.856934    287.254832
PG08  24461.503201   4555.918550   9756.065342    -93.877210
PG09   8769.037885 -12761.283217 -21663.922420   -268.507220
PG10  -1970.345097  17329.928460  20091.472844    -11.961092
PG11 -12144.664070 -15494.265873 -17840.171107    -39.958219
PG12 -24223.956125   9913.697224   3903.540836   -304.391757
PG13 -22895.892977 -12991.301026   4047.409120    424.787947
PG14   4735.675564 -18205.607156  18712.540645    -82.840304
PG15 -24812.491111  -1759.852133   9251.979970    -12.324865
PG16  19361.224552   4180.032627 -18196.966782   -526.895728
PG17  -4743.422398 -18121.895343  19242.231873    677.980868
PG18  -5706.981501  24232.648964  -9049.901443    -22.431290
PG19 -15269.734768 -18979.611223  10663.198472    237.513211
PG20 -13548.620202  -8422.836864 -21191.003647    470.043361
PG21  15552.851783   -290.504451  22160.825835    156.018895
PG22  17146.450325  18470.437369   9083.998835    364.803573
PG23 -12725.666084  19247.552093  13024.323034     -1.019726
PG24 -14795.216343   5989.774694  20846.453961     58.485552
PG25 -19254.442284  17229.226661  -5767.968558    392.708814
PG26  10575.312171  11818.049100 -21412.426774    235.812942
PG27  23341.465333  13101.652269  -1103.091134    177.681562
PG29 -11231.025501  10271.455283 -21816.434504   -567.278637
PG30  -1093.103546 -26393.254286    580.229668   -536.692485
PG31   7484.673887  23215.188250 -10078.923528   -200.223064
PG32   8967.977872  18302.716854  17285.495894   -296.622575
PJ02 -35292.309329  22616.187712   -321.728196     -0.134993
PJ03 -19735.986540  23973.406216 -23906.493924     -4.671487
PJ04 -28565.653649  29823.659777  14966.522321    113.043455
PR01  24357.880936   3850.048833   6506.236552     17.891559
PR02  21928.015127  -4413.796997 -12292.576481    -23.328818
PR03   6480.542486 -10269.284342 -22403.504037     67.310166
PR04 -12227.718938 -10077.958705 -19962.150086    164.949369
PR05 -24202.048505  -4595.553049  -6554.814248    102.937151
PR07  -5511.606301  10426.413000  22643.043146     44.333304
PR08  12428.927332  10127.334912  19902.090186    -68.102167
PR09 -16419.491500  16154.475015  11058.139007     87.645040
PR11    455.449026  16525.669812 -19419.901621     20.554508
PR12  12642.267839    -85.668002 -22132.430672     22.861313
PR13  16467.648263 -14937.031647 -12522.809057    -28.894456
PR14  10662.252565 -22325.643112   6190.917991     24.112703
PR15  -1149.237074 -15873.128598  19953.650825     92.761914
PR17  -1588.676800 -19666.509631  16208.972785    578.212174
PR18 -10858.239326 -23043.125745    808.905808     52.047660
PR19 -14110.710537 -15921.139028 -14076.618742   -211.015302
PR20  -9531.071651   4010.762031 -23304.116106    -82.180037
PR21   2542.365259  20459.302258 -14992.518502   -349.796710
PR22  10347.203485  23320.925317     56.754183     15.910809
PR24   9532.219613  -5157.282782  23113.646121    126.575133
EOF
